{
  "type": "FeatureCollection",
  "features": [
    {
      "type": "Feature",
      "properties": {
        "OBJECT_NAME": "EUTELSAT HOTBIRD 13F",
        "OBJECT_ID": "2022-134A",
        "EPOCH": "2025-11-29T19:04:17.118048",
        "MEAN_MOTION": 1.00271273,
        "ECCENTRICITY": 0.0002005,
        "INCLINATION": 0.0531,
        "RA_OF_ASC_NODE": 288.5271,
        "ARG_OF_PERICENTER": 70.5155,
        "MEAN_ANOMALY": 8.9718,
        "EPHEMERIS_TYPE": 0,
        "CLASSIFICATION_TYPE": "U",
        "NORAD_CAT_ID": 54048,
        "ELEMENT_SET_NO": 999,
        "REV_AT_EPOCH": 1137,
        "BSTAR": 0,
        "MEAN_MOTION_DOT": 1.08e-06,
        "MEAN_MOTION_DDOT": 0,
        "norad_id": 54048,
        "name": "EUTELSAT HOTBIRD 13F",
        "group": "eutelsat",
        "longitude_deg": NaN,
        "latitude_deg": NaN,
        "alt_km": NaN,
        "orbit_class": "HEO",
        "timestamp": "2025-11-30T04:52:16.866740+00:00"
      },
      "geometry": {
        "type": "Point",
        "coordinates": [
          NaN,
          NaN
        ]
      }
    },
    {
      "type": "Feature",
      "properties": {
        "OBJECT_NAME": "EUTELSAT HOTBIRD 13G",
        "OBJECT_ID": "2022-146A",
        "EPOCH": "2025-11-29T19:04:17.118048",
        "MEAN_MOTION": 1.00271497,
        "ECCENTRICITY": 0.0002001,
        "INCLINATION": 0.0457,
        "RA_OF_ASC_NODE": 238.0526,
        "ARG_OF_PERICENTER": 303.5782,
        "MEAN_ANOMALY": 186.3776,
        "EPHEMERIS_TYPE": 0,
        "CLASSIFICATION_TYPE": "U",
        "NORAD_CAT_ID": 54225,
        "ELEMENT_SET_NO": 999,
        "REV_AT_EPOCH": 546,
        "BSTAR": 0,
        "MEAN_MOTION_DOT": 1.08e-06,
        "MEAN_MOTION_DDOT": 0,
        "norad_id": 54225,
        "name": "EUTELSAT HOTBIRD 13G",
        "group": "eutelsat",
        "longitude_deg": NaN,
        "latitude_deg": NaN,
        "alt_km": NaN,
        "orbit_class": "HEO",
        "timestamp": "2025-11-30T04:52:16.867670+00:00"
      },
      "geometry": {
        "type": "Point",
        "coordinates": [
          NaN,
          NaN
        ]
      }
    },
    {
      "type": "Feature",
      "properties": {
        "OBJECT_NAME": "EUTELSAT 10B",
        "OBJECT_ID": "2022-157A",
        "EPOCH": "2025-11-29T03:38:47.882112",
        "MEAN_MOTION": 1.00270441,
        "ECCENTRICITY": 8.845e-05,
        "INCLINATION": 0.0578,
        "RA_OF_ASC_NODE": 103.3472,
        "ARG_OF_PERICENTER": 49.4361,
        "MEAN_ANOMALY": 340.2595,
        "EPHEMERIS_TYPE": 0,
        "CLASSIFICATION_TYPE": "U",
        "NORAD_CAT_ID": 54259,
        "ELEMENT_SET_NO": 999,
        "REV_AT_EPOCH": 1102,
        "BSTAR": 0,
        "MEAN_MOTION_DOT": 8.9e-07,
        "MEAN_MOTION_DDOT": 0,
        "norad_id": 54259,
        "name": "EUTELSAT 10B",
        "group": "eutelsat",
        "longitude_deg": NaN,
        "latitude_deg": NaN,
        "alt_km": NaN,
        "orbit_class": "HEO",
        "timestamp": "2025-11-30T04:52:16.867755+00:00"
      },
      "geometry": {
        "type": "Point",
        "coordinates": [
          NaN,
          NaN
        ]
      }
    },
    {
      "type": "Feature",
      "properties": {
        "OBJECT_NAME": "EUTELSAT 36D",
        "OBJECT_ID": "2024-059A",
        "EPOCH": "2025-11-28T23:16:49.647648",
        "MEAN_MOTION": 1.00270399,
        "ECCENTRICITY": 6.86e-05,
        "INCLINATION": 0.0173,
        "RA_OF_ASC_NODE": 317.8027,
        "ARG_OF_PERICENTER": 13.5812,
        "MEAN_ANOMALY": 121.8083,
        "EPHEMERIS_TYPE": 0,
        "CLASSIFICATION_TYPE": "U",
        "NORAD_CAT_ID": 59346,
        "ELEMENT_SET_NO": 999,
        "REV_AT_EPOCH": 614,
        "BSTAR": 0,
        "MEAN_MOTION_DOT": 0,
        "MEAN_MOTION_DDOT": 0,
        "norad_id": 59346,
        "name": "EUTELSAT 36D",
        "group": "eutelsat",
        "longitude_deg": NaN,
        "latitude_deg": NaN,
        "alt_km": NaN,
        "orbit_class": "HEO",
        "timestamp": "2025-11-30T04:52:16.888637+00:00"
      },
      "geometry": {
        "type": "Point",
        "coordinates": [
          NaN,
          NaN
        ]
      }
    }
  ]
}