EUTELSAT HOTBIRD 13F    
1 54048U 22134A   25333.79464257  .00000108  00000+0  00000+0 0  9990
2 54048   0.0531 288.5271 0002005  70.5155   8.9718  1.00271273 11373
EUTELSAT HOTBIRD 13G    
1 54225U 22146A   25333.79464257  .00000108  00000+0  00000+0 0  9990
2 54225   0.0457 238.0526 0002001 303.5782 186.3776  1.00271497  5467
EUTELSAT 10B            
1 54259U 22157A   25333.15194308  .00000089  00000+0  00000+0 0  9994
2 54259   0.0578 103.3472 0000884  49.4361 340.2595  1.00270441 11025
EUTELSAT 36D            
1 59346U 24059A   25332.97001907  .00000000  00000+0  00000+0 0  9993
2 59346   0.0173 317.8027 0000686  13.5812 121.8083  1.00270399  6143
